[{"OBJECT_NAME":"STARLINK-30198","OBJECT_ID":"2023-096A","EPOCH":"2026-03-09T22:00:01.999584","MEAN_MOTION":15.15672992,"ECCENTRICITY":0.00017382,"INCLINATION":42.9995,"RA_OF_ASC_NODE":221.4881,"ARG_OF_PERICENTER":295.0997,"MEAN_ANOMALY":179.6566,"EPHEMERIS_TYPE":0,"CLASSIFICATION_TYPE":"U","NORAD_CAT_ID":57290,"ELEMENT_SET_NO":999,"REV_AT_EPOCH":567,"BSTAR":0.0050728772,"MEAN_MOTION_DOT":0.00099438,"MEAN_MOTION_DDOT":0},{"OBJECT_NAME":"OBJECT D","OBJECT_ID":"2026-027D","EPOCH":"2026-03-09T23:02:32.268480","MEAN_MOTION":15.18179588,"ECCENTRICITY":0.00102807,"INCLINATION":97.4905,"RA_OF_ASC_NODE":197.9873,"ARG_OF_PERICENTER":203.4991,"MEAN_ANOMALY":156.5775,"EPHEMERIS_TYPE":0,"CLASSIFICATION_TYPE":"U","NORAD_CAT_ID":67749,"ELEMENT_SET_NO":999,"REV_AT_EPOCH":385,"BSTAR":0.00056517767,"MEAN_MOTION_DOT":0.00011507,"MEAN_MOTION_DDOT":0}]
